#dP2022  3  9 12  0  0.00000000      96 __u+U ITR00 EXT  IAC
## 2200 302400.00000000   900.00000000 59647 0.5000000000000
+  117   C06C07C08C09C10C11C12C13C14C16C19C20C21C22C23C24C25
+        C26C27C28C29C30C32C33C34C35C36C37C38C39C40C41C42C43
+        C44C45C46E01E02E03E04E05E07E08E09E10E11E12E13E14E15
+        E18E19E21E25E26E27E30E31E33E34E36G01G02G03G04G05G06
+        G07G08G09G10G11G12G13G14G15G16G17G18G19G20G21G22G23
+        G24G25G26G27G28G29G30G31G32J01J02J03R01R02R03R04R05
+        R07R08R09R11R12R13R14R15R17R18R19R20R21R22R24  0  0
++         9 10  8  7  8 10 10  8  8 10  9 10  8  8  9  8  9
++         8  8  7  8  8  8  8  8  8  9  8 10 11  9  9  9  8
++         8  9 10  7  9  9  7  8  8  9  7  8  8  7  8  8  8
++         8  7  8  8  7  9  7  9  7  9  7  6  7  7  7  8  7
++         6  6  6  7  8  8  8  7  7  7  6  7  8  8  7  8  8
++         8  7  6  6  6  8  7  9  7 16  9  9  8  9  8  7  8
++         7  7  8  8  7  9  8  7  9  8  8  9  8 10  8  0  0
%c M  cc GPS ccc cccc cccc cccc cccc ccccc ccccc ccccc ccccc
%c cc cc ccc ccc cccc cccc cccc cccc ccccc ccccc ccccc ccccc
%f  0.0000000  0.000000000  0.00000000000  0.000000000000000
%f  0.0000000  0.000000000  0.00000000000  0.000000000000000
%i    0    0    0    0      0      0      0      0         0
%i    0    0    0    0      0      0      0      0         0
/* IAC                                ULTRA-RAPID PREDICTION
/* S/V CLOCKS ARE ALIGNED TO GNSS TIME                      
/* G:C1WC2W R:C1PC2P E:C1XC5X C:C2IC6I J:C1CC2S             
/* PCV:IGS14_2196 OL/AL:FES2004  NONE     YN ORB:CoN CLK:CoN
*  2022 03 10  4 15  0.00000000
PC06 -17588.536627  36872.090863   9975.839400   -418.120785
PC07  -3356.939616  34191.909286  24524.521041    154.295189
PC08 -12293.805937  19522.961790 -35297.029811    186.504836
PC09  -9511.153189  35623.215136  20346.144752   -590.905195
PC10   3553.291026  37471.957642  19706.911566    139.062585
PC11  17220.440647    530.625509 -21881.353576   -161.061299
PC12   4947.327527  17395.755725 -21216.760858    682.642980
PC13  -2377.810646  22243.243956 -35620.339059    -94.244098
PC14  18905.879691  11037.158878  17364.110682    451.669973
PC16 -18232.542472  36827.063493   8956.774030     98.941533
PC19 -17162.637110   -591.798915 -21962.290113    887.780614
PC20 -17799.436268 -18185.609220 -11402.844493   -842.052565
PC21   7749.918612  25974.172427  -6661.734844   -922.535882
PC22  -6580.595766  18075.239242 -20220.269248   -960.039540
PC23  16455.551300 -12410.761374 -18813.680726   -946.160420
PC24  21968.841262  11015.994850  13177.575216   -945.887975
PC25  27365.686808  -2303.061073  -4900.440898   -768.148802
PC26   5444.358226  16104.085176  22110.686529    768.289513
PC27   2444.333681 -22844.678628  15835.115189    689.492997
PC28  15991.412006 -22869.397071   -298.239798     41.670802
PC29 -20007.098714   9998.504999  16677.091198    525.531699
PC30 -12579.516763  -9800.872055  22895.891698    494.850149
PC32  -7867.226450 -25906.775235   6759.181505   -970.339283
PC33  17245.385176    584.634390  21945.102979   -964.156316
PC34  13271.291463   8842.947901 -22909.572446   -451.806831
PC35 -15604.744848  23083.392693   1093.556744    175.037260
PC36 -27525.996819   1330.971282   4434.058078   -935.550168
PC37  -3834.553268 -16290.499550 -22325.288106   -944.814801
PC38 -19536.882136  20103.828789 -31499.151306    216.856969
PC39 -20830.390413  36517.839439   1479.523186     34.843645
PC40  -6100.498694  30708.383428  28294.910449    250.958499
PC41   6928.849398 -17738.268837  20453.537516   -952.349804
PC42  17634.933598  18886.409229  10609.743874   -936.628442
PC43  20071.824157  -9248.122900 -17063.762474   -937.042258
PC44  -1678.588123  23020.557166 -15666.603859    589.837050
PC45 -16236.835996  12417.519795  19003.899532    700.687044
PC46 -23006.940259 -10213.585692 -12094.216403   -209.518438
PE01  -1105.744304 -19070.820448 -22618.975840   -593.846583
PE02   1249.052529  19111.772933  22555.052029    285.254496
PE03  -3129.046514  29344.712252  -2367.166532   -535.779534
PE04  -9500.463570 -23605.564541 -15116.040128   -981.240055
PE05 -14170.553718  17932.693872 -18804.266597   -201.819943
PE07  16816.247316   3751.964516  24076.784184   -646.808370
PE08   9719.632379  23290.204303  15479.011303   -492.554804
PE09 -16709.149445  -3394.029968 -24190.292889   5333.802518
PE10 -19590.410231  -5401.085087  21518.019966   -499.630518
PE11 -25617.472784   2647.872406  14567.495731   4268.695795
PE12 -10792.846273 -12422.047625  24604.996255   4721.181564
PE13  25344.769339  -2244.813644 -15129.055570    427.162088
PE14  13835.916620  19669.888052 -21897.061113  -1772.794547
PE15  10669.958138  12394.451461 -24663.123032    758.711544
PE18 -11592.597226 -11299.788657  16998.550037  -1702.170593
PE19   4773.919537 -28832.689652   4721.836177  -1060.263985
PE21  16955.085168  -7665.213219 -23024.826016   -721.641940
PE25 -17179.176838   7442.357139  22929.394278   -566.261978
PE26  24626.827356 -15884.998482   4196.088501   -894.605318
PE27  26342.297279   8796.764207 -10222.130033   -249.684768
PE30  19319.293582  20332.215265   9416.976322   -336.188254
PE31 -20159.796899 -19949.894763  -8487.705494   -493.304032
PE33  10245.789773 -19670.913830  19617.778386   -458.712906
PE34  -9992.299039  19665.695016 -19739.561598   -505.935056
PE36 -25031.640964  15452.716399  -3211.090198   -343.135674
PG01   -177.832847  15356.663855 -21905.076515    412.618386
PG02  19590.524183 -15821.179613   9316.179803   -652.058073
PG03   9122.699980  20557.633200 -14318.285029   -156.490838
PG04    183.694765  25287.667201   7987.054860   -184.683242
PG05   6276.498177 -14140.249064  21413.589480    -74.136509
PG06  25476.918457  -4916.919603  -5798.906416    226.293603
PG07  16695.152331   8731.549815  19292.550715    315.175771
PG08  -5932.734052  25560.957953   2565.429652    -59.246310
PG09   8825.316127  18723.884758  16555.984930   -350.558713
PG10 -22515.131223  -9756.772091 -10383.440671   -342.395979
PG11  21636.200788 -12710.124973   8687.576970    -66.345068
PG12  -4720.177466 -20514.237781 -16541.318348   -182.578298
PG13  13139.985607 -21255.024692   8602.407409    274.325928
PG14  22173.276353  10878.520936  -9873.878345    -92.316045
PG15   2536.794311 -26197.636145   1457.964909    -77.966831
PG16 -11262.712191   9780.069905  21712.935909   -478.864953
PG17  14259.338793   3146.481083 -21756.740380    585.236481
PG18 -16239.773209  -8460.711908  19271.591257    223.317930
PG19  16037.066166  -4830.886377 -20827.556748    129.010542
PG20  14763.695261  -8353.678425  20384.637387    516.368195
PG21 -10723.865281  17208.232145 -16133.553381    159.183890
PG22 -15987.018654   8613.430862 -18913.606148    225.180408
PG23 -20723.797061 -16696.896842     62.013485     -5.505629
PG24   3761.564336 -17615.196672 -19689.031318    269.351604
PG25 -16426.894702 -20032.724602  -6778.209891    296.214997
PG26 -20082.753711    765.194431  17430.776210    189.560145
PG27 -12293.025634  19485.163383  12654.039805    148.723870
PG28  19975.838411   4456.622091 -16284.856770    383.817916
PG29  -5439.053601 -20661.733923  15694.845343   -489.525732
PG30  22842.840812   2827.181162  13536.750862   -517.855039
PG31 -25921.820894   6025.354445  -3414.706769   -168.237852
PG32 -15475.598023   1239.030090 -21394.051469    -81.867086
PJ01 -20920.727323  25649.155814 -21595.036043    207.099685
PJ02 -27527.257570  20738.028987  29253.231539     -1.863237
PJ03 -33978.184518  24910.274964   7489.038014     -0.903186
PR01  12744.604377   7457.018805  20808.867451      7.211969
PR02   6516.073833 -13322.252325  20817.599826    512.064904
PR03  -2904.427071 -24130.017379   7883.893952     52.836822
PR04 -10410.195771 -21355.930448  -9267.927068    131.215494
PR05 -12210.308594  -6879.444504 -21304.093471     89.099301
PR07   3314.609500  24248.185149  -7064.859966     32.484042
PR08  10606.246624  21177.448600   9497.697621    -63.942708
PR09 -16395.830451   5657.163010  18686.188744     43.540939
PR11  17975.090561  11185.859211  14241.837470     43.924664
PR12  24850.807980   4361.108816  -3654.022604     17.399363
PR13  17367.721381  -4795.034859 -18075.435786    -19.243595
PR14  -1404.102830 -11639.530353 -22647.875115     75.232352
PR15 -18406.674072 -11309.631885 -13552.363184     97.653637
PR17   9285.455577 -18813.522171  14496.218881    508.264412
PR18  -4474.329415 -10114.674276  23006.946972    109.815690
PR19 -15604.648744   2595.484400  20010.449358   -181.006440
PR20 -19286.369982  16360.108534   3128.584044    -66.434089
PR21  -8349.952149  18363.900631 -15621.526060   -284.086547
PR22   5252.081513   9321.364299 -23160.071639   -169.620889
PR24  18785.135403 -17089.083954  -2349.221939     83.678860
EOF
